STARLINK-35893          
1 66565U 25268J   25364.33335648  .00038756  00000+0  14131-2 0  9996
2 66565  43.0006  18.5478 0001565 279.7641 128.4550 15.27519963  5984
STARLINK-35871          
1 66566U 25268K   25364.33335648  .00040519  00000+0  14786-2 0  9993
2 66566  43.0006  18.5126 0001612 258.5801 163.8432 15.27475403  5938
STARLINK-35825          
1 66567U 25268L   25364.33335648  .00025396  00000+0  90725-3 0  9998
2 66567  43.0009  18.4767 0001092 287.6744 149.9916 15.28365706  5930
STARLINK-35803          
1 66568U 25268M   25364.33335648 -.01734846  00000+0 -59393-1 0  9993
2 66568  43.0004  18.4254 0001511 281.5978 177.5278 15.32790866  5982
STARLINK-35835          
1 66569U 25268N   25364.33335648 -.02923513  00000+0 -10905+0 0  9990
2 66569  43.0006  18.3905 0001636 297.7443 175.2700 15.30820996  5982
STARLINK-35834          
1 66570U 25268P   25364.25002315  .00001054  00000+0  47872-4 0  9996
2 66570  43.0015  19.6657 0000997 230.9563 169.6382 15.27544570  5972
STARLINK-35836          
1 66571U 25268Q   25364.25002315 -.00000021  00000+0  87532-5 0  9999
2 66571  43.0012  19.6141 0001095 265.0758 156.6988 15.27561224  5864
STARLINK-35870          
1 66572U 25268R   25364.25002315  .00001940  00000+0  80045-4 0  9991
2 66572  43.0008  19.5296 0001285 272.6137 184.5364 15.27566034  5813
STARLINK-35650          
1 66573U 25268S   25364.25002315  .00003514  00000+0  13726-3 0  9992
2 66573  43.0006  19.4771 0001444 249.4243 228.9679 15.27556992  5977
STARLINK-35812          
1 66574U 25268T   25364.25002315  .00000958  00000+0  44352-4 0  9992
2 66574  43.0004  19.4249 0000912 269.0519 230.5834 15.27555194  5974
STARLINK-35810          
1 66575U 25268U   25364.25002315  .00000651  00000+0  33198-4 0  9999
2 66575  43.0003  19.3737 0001814 273.2840 247.5330 15.27566840  5970
STARLINK-35814          
1 66576U 25268V   25364.25002315  .00008114  00000+0  30428-3 0  9994
2 66576  43.0003  19.3221 0001448 264.8672 277.2015 15.27555089  5929
