CCSDS_OMM_VERS = 2.0
CREATION_DATE  = 
ORIGINATOR     = 

OBJECT_NAME    = STARLINK-35893
OBJECT_ID      = 2025-268J
CENTER_NAME    = EARTH
REF_FRAME      = TEME
TIME_SYSTEM    = UTC
MEAN_ELEMENT_THEORY = SGP/SGP4

EPOCH          = 2025-12-30T08:00:01.999872
MEAN_MOTION    = 15.27519963
ECCENTRICITY   = .00015655
INCLINATION    = 43.0006
RA_OF_ASC_NODE = 18.5478
ARG_OF_PERICENTER = 279.7641
MEAN_ANOMALY   = 128.4550

EPHEMERIS_TYPE = 0
CLASSIFICATION_TYPE = U
NORAD_CAT_ID   = 66565
ELEMENT_SET_NO = 999
REV_AT_EPOCH   = 598
BSTAR          = .14130705E-2
MEAN_MOTION_DOT = .38756E-3
MEAN_MOTION_DDOT = 0

CCSDS_OMM_VERS = 2.0
CREATION_DATE  = 
ORIGINATOR     = 

OBJECT_NAME    = STARLINK-35871
OBJECT_ID      = 2025-268K
CENTER_NAME    = EARTH
REF_FRAME      = TEME
TIME_SYSTEM    = UTC
MEAN_ELEMENT_THEORY = SGP/SGP4

EPOCH          = 2025-12-30T08:00:01.999872
MEAN_MOTION    = 15.27475403
ECCENTRICITY   = .00016128
INCLINATION    = 43.0006
RA_OF_ASC_NODE = 18.5126
ARG_OF_PERICENTER = 258.5801
MEAN_ANOMALY   = 163.8432

EPHEMERIS_TYPE = 0
CLASSIFICATION_TYPE = U
NORAD_CAT_ID   = 66566
ELEMENT_SET_NO = 999
REV_AT_EPOCH   = 593
BSTAR          = .14785695E-2
MEAN_MOTION_DOT = .40519E-3
MEAN_MOTION_DDOT = 0

CCSDS_OMM_VERS = 2.0
CREATION_DATE  = 
ORIGINATOR     = 

OBJECT_NAME    = STARLINK-35825
OBJECT_ID      = 2025-268L
CENTER_NAME    = EARTH
REF_FRAME      = TEME
TIME_SYSTEM    = UTC
MEAN_ELEMENT_THEORY = SGP/SGP4

EPOCH          = 2025-12-30T08:00:01.999872
MEAN_MOTION    = 15.28365706
ECCENTRICITY   = .00010923
INCLINATION    = 43.0009
RA_OF_ASC_NODE = 18.4767
ARG_OF_PERICENTER = 287.6744
MEAN_ANOMALY   = 149.9916

EPHEMERIS_TYPE = 0
CLASSIFICATION_TYPE = U
NORAD_CAT_ID   = 66567
ELEMENT_SET_NO = 999
REV_AT_EPOCH   = 593
BSTAR          = .90725099E-3
MEAN_MOTION_DOT = .25396E-3
MEAN_MOTION_DDOT = 0

CCSDS_OMM_VERS = 2.0
CREATION_DATE  = 
ORIGINATOR     = 

OBJECT_NAME    = STARLINK-35803
OBJECT_ID      = 2025-268M
CENTER_NAME    = EARTH
REF_FRAME      = TEME
TIME_SYSTEM    = UTC
MEAN_ELEMENT_THEORY = SGP/SGP4

EPOCH          = 2025-12-30T08:00:01.999872
MEAN_MOTION    = 15.32790866
ECCENTRICITY   = .00015115
INCLINATION    = 43.0004
RA_OF_ASC_NODE = 18.4254
ARG_OF_PERICENTER = 281.5978
MEAN_ANOMALY   = 177.5278

EPHEMERIS_TYPE = 0
CLASSIFICATION_TYPE = U
NORAD_CAT_ID   = 66568
ELEMENT_SET_NO = 999
REV_AT_EPOCH   = 598
BSTAR          = -.59392941E-1
MEAN_MOTION_DOT = -.1734846E-1
MEAN_MOTION_DDOT = 0

CCSDS_OMM_VERS = 2.0
CREATION_DATE  = 
ORIGINATOR     = 

OBJECT_NAME    = STARLINK-35835
OBJECT_ID      = 2025-268N
CENTER_NAME    = EARTH
REF_FRAME      = TEME
TIME_SYSTEM    = UTC
MEAN_ELEMENT_THEORY = SGP/SGP4

EPOCH          = 2025-12-30T08:00:01.999872
MEAN_MOTION    = 15.30820996
ECCENTRICITY   = .00016369
INCLINATION    = 43.0006
RA_OF_ASC_NODE = 18.3905
ARG_OF_PERICENTER = 297.7443
MEAN_ANOMALY   = 175.2700

EPHEMERIS_TYPE = 0
CLASSIFICATION_TYPE = U
NORAD_CAT_ID   = 66569
ELEMENT_SET_NO = 999
REV_AT_EPOCH   = 598
BSTAR          = -.10904938E+0
MEAN_MOTION_DOT = -.2923513E-1
MEAN_MOTION_DDOT = 0

CCSDS_OMM_VERS = 2.0
CREATION_DATE  = 
ORIGINATOR     = 

OBJECT_NAME    = STARLINK-35834
OBJECT_ID      = 2025-268P
CENTER_NAME    = EARTH
REF_FRAME      = TEME
TIME_SYSTEM    = UTC
MEAN_ELEMENT_THEORY = SGP/SGP4

EPOCH          = 2025-12-30T06:00:02.000160
MEAN_MOTION    = 15.27544570
ECCENTRICITY   = .00009975
INCLINATION    = 43.0015
RA_OF_ASC_NODE = 19.6657
ARG_OF_PERICENTER = 230.9563
MEAN_ANOMALY   = 169.6382

EPHEMERIS_TYPE = 0
CLASSIFICATION_TYPE = U
NORAD_CAT_ID   = 66570
ELEMENT_SET_NO = 999
REV_AT_EPOCH   = 597
BSTAR          = .47871828E-4
MEAN_MOTION_DOT = .1054E-4
MEAN_MOTION_DDOT = 0

CCSDS_OMM_VERS = 2.0
CREATION_DATE  = 
ORIGINATOR     = 

OBJECT_NAME    = STARLINK-35836
OBJECT_ID      = 2025-268Q
CENTER_NAME    = EARTH
REF_FRAME      = TEME
TIME_SYSTEM    = UTC
MEAN_ELEMENT_THEORY = SGP/SGP4

EPOCH          = 2025-12-30T06:00:02.000160
MEAN_MOTION    = 15.27561224
ECCENTRICITY   = .00010956
INCLINATION    = 43.0012
RA_OF_ASC_NODE = 19.6141
ARG_OF_PERICENTER = 265.0758
MEAN_ANOMALY   = 156.6988

EPHEMERIS_TYPE = 0
CLASSIFICATION_TYPE = U
NORAD_CAT_ID   = 66571
ELEMENT_SET_NO = 999
REV_AT_EPOCH   = 586
BSTAR          = .8753229E-5
MEAN_MOTION_DOT = -.21E-6
MEAN_MOTION_DDOT = 0

CCSDS_OMM_VERS = 2.0
CREATION_DATE  = 
ORIGINATOR     = 

OBJECT_NAME    = STARLINK-35870
OBJECT_ID      = 2025-268R
CENTER_NAME    = EARTH
REF_FRAME      = TEME
TIME_SYSTEM    = UTC
MEAN_ELEMENT_THEORY = SGP/SGP4

EPOCH          = 2025-12-30T06:00:02.000160
MEAN_MOTION    = 15.27566034
ECCENTRICITY   = .00012854
INCLINATION    = 43.0008
RA_OF_ASC_NODE = 19.5296
ARG_OF_PERICENTER = 272.6137
MEAN_ANOMALY   = 184.5364

EPHEMERIS_TYPE = 0
CLASSIFICATION_TYPE = U
NORAD_CAT_ID   = 66572
ELEMENT_SET_NO = 999
REV_AT_EPOCH   = 581
BSTAR          = .80044855E-4
MEAN_MOTION_DOT = .194E-4
MEAN_MOTION_DDOT = 0

CCSDS_OMM_VERS = 2.0
CREATION_DATE  = 
ORIGINATOR     = 

OBJECT_NAME    = STARLINK-35650
OBJECT_ID      = 2025-268S
CENTER_NAME    = EARTH
REF_FRAME      = TEME
TIME_SYSTEM    = UTC
MEAN_ELEMENT_THEORY = SGP/SGP4

EPOCH          = 2025-12-30T06:00:02.000160
MEAN_MOTION    = 15.27556992
ECCENTRICITY   = .00014441
INCLINATION    = 43.0006
RA_OF_ASC_NODE = 19.4771
ARG_OF_PERICENTER = 249.4243
MEAN_ANOMALY   = 228.9679

EPHEMERIS_TYPE = 0
CLASSIFICATION_TYPE = U
NORAD_CAT_ID   = 66573
ELEMENT_SET_NO = 999
REV_AT_EPOCH   = 597
BSTAR          = .13726287E-3
MEAN_MOTION_DOT = .3514E-4
MEAN_MOTION_DDOT = 0

CCSDS_OMM_VERS = 2.0
CREATION_DATE  = 
ORIGINATOR     = 

OBJECT_NAME    = STARLINK-35812
OBJECT_ID      = 2025-268T
CENTER_NAME    = EARTH
REF_FRAME      = TEME
TIME_SYSTEM    = UTC
MEAN_ELEMENT_THEORY = SGP/SGP4

EPOCH          = 2025-12-30T06:00:02.000160
MEAN_MOTION    = 15.27555194
ECCENTRICITY   = .00009124
INCLINATION    = 43.0004
RA_OF_ASC_NODE = 19.4249
ARG_OF_PERICENTER = 269.0519
MEAN_ANOMALY   = 230.5834

EPHEMERIS_TYPE = 0
CLASSIFICATION_TYPE = U
NORAD_CAT_ID   = 66574
ELEMENT_SET_NO = 999
REV_AT_EPOCH   = 597
BSTAR          = .44352429E-4
MEAN_MOTION_DOT = .958E-5
MEAN_MOTION_DDOT = 0

CCSDS_OMM_VERS = 2.0
CREATION_DATE  = 
ORIGINATOR     = 

OBJECT_NAME    = STARLINK-35810
OBJECT_ID      = 2025-268U
CENTER_NAME    = EARTH
REF_FRAME      = TEME
TIME_SYSTEM    = UTC
MEAN_ELEMENT_THEORY = SGP/SGP4

EPOCH          = 2025-12-30T06:00:02.000160
MEAN_MOTION    = 15.27566840
ECCENTRICITY   = .00018148
INCLINATION    = 43.0003
RA_OF_ASC_NODE = 19.3737
ARG_OF_PERICENTER = 273.2840
MEAN_ANOMALY   = 247.5330

EPHEMERIS_TYPE = 0
CLASSIFICATION_TYPE = U
NORAD_CAT_ID   = 66575
ELEMENT_SET_NO = 999
REV_AT_EPOCH   = 597
BSTAR          = .33198179E-4
MEAN_MOTION_DOT = .651E-5
MEAN_MOTION_DDOT = 0

CCSDS_OMM_VERS = 2.0
CREATION_DATE  = 
ORIGINATOR     = 

OBJECT_NAME    = STARLINK-35814
OBJECT_ID      = 2025-268V
CENTER_NAME    = EARTH
REF_FRAME      = TEME
TIME_SYSTEM    = UTC
MEAN_ELEMENT_THEORY = SGP/SGP4

EPOCH          = 2025-12-30T06:00:02.000160
MEAN_MOTION    = 15.27555089
ECCENTRICITY   = .00014487
INCLINATION    = 43.0003
RA_OF_ASC_NODE = 19.3221
ARG_OF_PERICENTER = 264.8672
MEAN_ANOMALY   = 277.2015

EPHEMERIS_TYPE = 0
CLASSIFICATION_TYPE = U
NORAD_CAT_ID   = 66576
ELEMENT_SET_NO = 999
REV_AT_EPOCH   = 592
BSTAR          = .30428077E-3
MEAN_MOTION_DOT = .8114E-4
MEAN_MOTION_DDOT = 0

